COSMOS 2426 (717)       
1 29671U 06062B   19085.07132803  .00000018  00000-0  10000-3 0  9999
2 29671  65.1576 283.1037 0017005 158.2628  21.8115  2.13102425 95323
COSMOS 2433 (720)       
1 32275U 07052A   19085.01354696 -.00000040  00000-0  10000-3 0  9999
2 32275  65.8197  43.9189 0004815 280.5975 191.5455  2.13104459 88831
COSMOS 2432 (719)       
1 32276U 07052B   19084.61691373 -.00000041  00000-0  10000-3 0  9992
2 32276  65.8306  44.0130 0013212 326.4361 152.6879  2.13103860 88824
COSMOS 2434 (721)       
1 32393U 07065A   19084.59671461  .00000015  00000-0  00000+0 0  9994
2 32393  64.7585 281.8573 0005331  87.8014 312.0573  2.13102982 87533
COSMOS 2436 (723)       
1 32395U 07065C   19085.18795382  .00000020  00000-0  10000-3 0  9992
2 32395  64.7716 281.8896 0017096   6.2758 179.0343  2.13104353 87473
COSMOS 2456 (730)       
1 36111U 09070A   19084.89195987 -.00000009  00000-0  00000-0 0  9996
2 36111  64.1948 161.4720 0004595 314.3470 124.9259  2.13102782 72201
COSMOS 2457 (733)       
1 36112U 09070B   19085.11956815 -.00000011  00000-0  00000+0 0  9990
2 36112  64.1775 161.3695 0005603 170.9143 208.4593  2.13101531 72215
COSMOS 2459 (731)       
1 36400U 10007A   19085.39931940 -.00000042  00000-0  10000-3 0  9993
2 36400  65.7252  42.9314 0028120 347.1737 277.5319  2.13102202 70565
COSMOS 2461 (735)       
1 36401U 10007B   19084.72783999 -.00000042  00000-0  10000-3 0  9999
2 36401  65.7182  42.9272 0005942  41.2134 338.8950  2.13102199 70557
COSMOS 2460 (732)       
1 36402U 10007C   19084.71226241 -.00000042  00000-0  10000-3 0  9991
2 36402  65.7087  42.8928 0002634 308.7945  99.4484  2.13101553 70550
COSMOS 2464 (736)       
1 37139U 10041C   19084.48129957  .00000014  00000-0  00000+0 0  9990
2 37139  64.3636 281.5257 0026512  15.6270 162.5823  2.13100624 66615
COSMOS 2474 (742)       
1 37829U 11055A   19084.64773443 -.00000006  00000-0  00000+0 0  9997
2 37829  64.5173 162.3179 0009083 247.6577 221.0782  2.13101845 58194
COSMOS 2476 (744)       
1 37867U 11064A   19084.63632819 -.00000005  00000-0  00000+0 0  9998
2 37867  64.4977 162.3727 0019035 240.8318 265.2729  2.13101963 57542
COSMOS 2477 (745)       
1 37868U 11064B   19085.05552391 -.00000010  00000-0  00000+0 0  9998
2 37868  64.5059 162.4090 0016655 242.1515  44.2848  2.13101705 57505
COSMOS 2475 (743)       
1 37869U 11064C   19084.48013534 -.00000004  00000-0  00000+0 0  9999
2 37869  64.5140 162.4243 0020865 265.4038 256.6160  2.13101858 57508
COSMOS 2485 (747)       
1 39155U 13019A   19085.09426211 -.00000011  00000-0  00000+0 0  9997
2 39155  64.6665 162.5274 0019409 235.9521 306.2324  2.13101885 46026
COSMOS 2492 (754)       
1 39620U 14012A   19084.57085439 -.00000043  00000-0  10000-3 0  9993
2 39620  65.5980  42.7423 0016462 324.3436 211.3416  2.13103367 38961
COSMOS 2500 (755)       
1 40001U 14032A   19084.62261929 -.00000043  00000-0  00000+0 0  9991
2 40001  65.5392  42.6897 0006332 232.1713 204.8282  2.13102741 37182
COSMOS 2501 (702K)      
1 40315U 14075A   19084.54855845  .00000012  00000-0  00000+0 0  9998
2 40315  64.0855 282.6352 0014571 204.2050 334.7283  2.13098559 33583
COSMOS 2514 (751)       
1 41330U 16008A   19084.84674295 -.00000043  00000-0  00000-0 0  9991
2 41330  65.3416  42.6664 0009958 231.2451 199.2060  2.13103114 24352
COSMOS 2516 (753)       
1 41554U 16032A   19084.85042206  .00000015  00000-0  00000-0 0  9996
2 41554  64.3037 282.5707 0010029 215.1914 108.7431  2.13101768 21950
COSMOS 2522 (752)       
1 42939U 17055A   19085.07692619  .00000018  00000-0  00000+0 0  9996
2 42939  64.5375 282.6085 0005018 252.1785 112.0065  2.13101942 11723
COSMOS 2527 (756)       
1 43508U 18053A   19085.02833154 -.00000010  00000-0  00000+0 0  9997
2 43508  64.8306 162.2827 0007291 234.5147 123.3942  2.13102629  6008
COSMOS 2529 (757)       
1 43687U 18086A   19084.66452218  .00000015  00000-0  00000+0 0  9992
2 43687  64.7506 282.6221 0008172 281.8298  81.6957  2.13102082  3027
